BREEZE-M DEB            
1 38921U 12044BE  17345.91539075  .00048953  48245-5  74435-3 0  9996
2 38921  50.2059 211.6107 1654770 190.6954 165.4127 12.26680939209753
